[{"OBJECT_NAME":"ONEWEB-0516","OBJECT_ID":"2022-138X","EPOCH":"2026-02-18T19:07:57.891648","MEAN_MOTION":13.19724188,"ECCENTRICITY":0.00017648,"INCLINATION":87.9249,"RA_OF_ASC_NODE":328.5515,"ARG_OF_PERICENTER":84.3073,"MEAN_ANOMALY":275.8261,"EPHEMERIS_TYPE":0,"CLASSIFICATION_TYPE":"U","NORAD_CAT_ID":54134,"ELEMENT_SET_NO":999,"REV_AT_EPOCH":16121,"BSTAR":0.00019444693,"MEAN_MOTION_DOT":9.1e-7,"MEAN_MOTION_DDOT":0},{"OBJECT_NAME":"ONEWEB-0517","OBJECT_ID":"2022-138Y","EPOCH":"2026-02-19T03:44:17.113632","MEAN_MOTION":13.19724915,"ECCENTRICITY":0.00016984,"INCLINATION":87.9254,"RA_OF_ASC_NODE":328.4677,"ARG_OF_PERICENTER":70.3479,"MEAN_ANOMALY":289.7837,"EPHEMERIS_TYPE":0,"CLASSIFICATION_TYPE":"U","NORAD_CAT_ID":54135,"ELEMENT_SET_NO":999,"REV_AT_EPOCH":16126,"BSTAR":7.4173416e-5,"MEAN_MOTION_DOT":4.3e-7,"MEAN_MOTION_DDOT":0},{"OBJECT_NAME":"ONEWEB-0518","OBJECT_ID":"2022-138Z","EPOCH":"2026-02-19T04:11:34.082592","MEAN_MOTION":13.1972608,"ECCENTRICITY":0.00016228,"INCLINATION":87.9245,"RA_OF_ASC_NODE":328.478,"ARG_OF_PERICENTER":81.0836,"MEAN_ANOMALY":279.0481,"EPHEMERIS_TYPE":0,"CLASSIFICATION_TYPE":"U","NORAD_CAT_ID":54136,"ELEMENT_SET_NO":999,"REV_AT_EPOCH":16126,"BSTAR":0.00025397645,"MEAN_MOTION_DOT":1.15e-6,"MEAN_MOTION_DDOT":0},{"OBJECT_NAME":"ONEWEB-0519","OBJECT_ID":"2022-138AA","EPOCH":"2026-02-19T06:37:08.804640","MEAN_MOTION":13.1972469,"ECCENTRICITY":0.00016909,"INCLINATION":87.9256,"RA_OF_ASC_NODE":328.4356,"ARG_OF_PERICENTER":69.0598,"MEAN_ANOMALY":291.0716,"EPHEMERIS_TYPE":0,"CLASSIFICATION_TYPE":"U","NORAD_CAT_ID":54137,"ELEMENT_SET_NO":999,"REV_AT_EPOCH":16128,"BSTAR":6.7062751e-5,"MEAN_MOTION_DOT":4.0e-7,"MEAN_MOTION_DDOT":0},{"OBJECT_NAME":"ONEWEB-0520","OBJECT_ID":"2022-138AB","EPOCH":"2026-02-19T03:48:49.582080","MEAN_MOTION":13.19724391,"ECCENTRICITY":0.0001543,"INCLINATION":87.9259,"RA_OF_ASC_NODE":328.4653,"ARG_OF_PERICENTER":83.3653,"MEAN_ANOMALY":276.7655,"EPHEMERIS_TYPE":0,"CLASSIFICATION_TYPE":"U","NORAD_CAT_ID":54138,"ELEMENT_SET_NO":999,"REV_AT_EPOCH":16125,"BSTAR":0.00013027737,"MEAN_MOTION_DOT":6.5e-7,"MEAN_MOTION_DDOT":0},{"OBJECT_NAME":"ONEWEB-0521","OBJECT_ID":"2022-138AC","EPOCH":"2026-02-19T06:25:45.853248","MEAN_MOTION":13.1972469,"ECCENTRICITY":0.00018121,"INCLINATION":87.9259,"RA_OF_ASC_NODE":328.4272,"ARG_OF_PERICENTER":69.0269,"MEAN_ANOMALY":291.1057,"EPHEMERIS_TYPE":0,"CLASSIFICATION_TYPE":"U","NORAD_CAT_ID":54139,"ELEMENT_SET_NO":999,"REV_AT_EPOCH":16121,"BSTAR":-2.2627256e-5,"MEAN_MOTION_DOT":4.0e-8,"MEAN_MOTION_DDOT":0},{"OBJECT_NAME":"ONEWEB-0522","OBJECT_ID":"2022-138AD","EPOCH":"2026-02-18T19:01:08.803200","MEAN_MOTION":13.19725136,"ECCENTRICITY":0.00016,"INCLINATION":87.9261,"RA_OF_ASC_NODE":328.523,"ARG_OF_PERICENTER":79.8276,"MEAN_ANOMALY":280.3037,"EPHEMERIS_TYPE":0,"CLASSIFICATION_TYPE":"U","NORAD_CAT_ID":54140,"ELEMENT_SET_NO":999,"REV_AT_EPOCH":16119,"BSTAR":0.00015007362,"MEAN_MOTION_DOT":7.3e-7,"MEAN_MOTION_DDOT":0},{"OBJECT_NAME":"ONEWEB-0523","OBJECT_ID":"2022-138AE","EPOCH":"2026-02-19T03:40:11.854272","MEAN_MOTION":13.2077127,"ECCENTRICITY":0.0002337,"INCLINATION":87.9204,"RA_OF_ASC_NODE":298.0008,"ARG_OF_PERICENTER":73.0602,"MEAN_ANOMALY":287.0787,"EPHEMERIS_TYPE":0,"CLASSIFICATION_TYPE":"U","NORAD_CAT_ID":54141,"ELEMENT_SET_NO":999,"REV_AT_EPOCH":16372,"BSTAR":-2.5974156e-5,"MEAN_MOTION_DOT":2.0e-8,"MEAN_MOTION_DDOT":0},{"OBJECT_NAME":"ONEWEB-0524","OBJECT_ID":"2022-138AF","EPOCH":"2026-02-19T03:24:20.587680","MEAN_MOTION":13.20781752,"ECCENTRICITY":0.00025984,"INCLINATION":87.9196,"RA_OF_ASC_NODE":298.0043,"ARG_OF_PERICENTER":94.8226,"MEAN_ANOMALY":265.3204,"EPHEMERIS_TYPE":0,"CLASSIFICATION_TYPE":"U","NORAD_CAT_ID":54142,"ELEMENT_SET_NO":999,"REV_AT_EPOCH":16372,"BSTAR":0.0031626015,"MEAN_MOTION_DOT":1.299e-5,"MEAN_MOTION_DDOT":0},{"OBJECT_NAME":"ONEWEB-0525","OBJECT_ID":"2022-138AG","EPOCH":"2026-02-19T06:23:29.387904","MEAN_MOTION":13.19724277,"ECCENTRICITY":0.00015548,"INCLINATION":87.9251,"RA_OF_ASC_NODE":328.4449,"ARG_OF_PERICENTER":82.9623,"MEAN_ANOMALY":277.1686,"EPHEMERIS_TYPE":0,"CLASSIFICATION_TYPE":"U","NORAD_CAT_ID":54143,"ELEMENT_SET_NO":999,"REV_AT_EPOCH":16127,"BSTAR":0.00031470908,"MEAN_MOTION_DOT":1.39e-6,"MEAN_MOTION_DDOT":0},{"OBJECT_NAME":"ONEWEB-0526","OBJECT_ID":"2022-138AH","EPOCH":"2026-02-19T03:32:54.519072","MEAN_MOTION":13.19724063,"ECCENTRICITY":0.00017132,"INCLINATION":87.9259,"RA_OF_ASC_NODE":328.4616,"ARG_OF_PERICENTER":81.9728,"MEAN_ANOMALY":278.1599,"EPHEMERIS_TYPE":0,"CLASSIFICATION_TYPE":"U","NORAD_CAT_ID":54144,"ELEMENT_SET_NO":999,"REV_AT_EPOCH":16123,"BSTAR":-0.00013408985,"MEAN_MOTION_DOT":-4.1e-7,"MEAN_MOTION_DDOT":0},{"OBJECT_NAME":"ONEWEB-0529","OBJECT_ID":"2022-138AJ","EPOCH":"2026-02-19T03:37:27.156000","MEAN_MOTION":13.19723849,"ECCENTRICITY":0.00015833,"INCLINATION":87.925,"RA_OF_ASC_NODE":328.4808,"ARG_OF_PERICENTER":83.1472,"MEAN_ANOMALY":276.9841,"EPHEMERIS_TYPE":0,"CLASSIFICATION_TYPE":"U","NORAD_CAT_ID":54145,"ELEMENT_SET_NO":999,"REV_AT_EPOCH":16125,"BSTAR":-0.00015698932,"MEAN_MOTION_DOT":-5.0e-7,"MEAN_MOTION_DDOT":0},{"OBJECT_NAME":"ONEWEB-0531","OBJECT_ID":"2022-138AK","EPOCH":"2026-02-19T03:03:49.914720","MEAN_MOTION":13.20771002,"ECCENTRICITY":0.00025731,"INCLINATION":87.9196,"RA_OF_ASC_NODE":298.0036,"ARG_OF_PERICENTER":77.6822,"MEAN_ANOMALY":282.46,"EPHEMERIS_TYPE":0,"CLASSIFICATION_TYPE":"U","NORAD_CAT_ID":54146,"ELEMENT_SET_NO":999,"REV_AT_EPOCH":16372,"BSTAR":-1.4346277e-5,"MEAN_MOTION_DOT":7.0e-8,"MEAN_MOTION_DDOT":0},{"OBJECT_NAME":"ONEWEB-0535","OBJECT_ID":"2022-138AL","EPOCH":"2026-02-19T06:14:24.211680","MEAN_MOTION":13.19724732,"ECCENTRICITY":0.00020409,"INCLINATION":87.9258,"RA_OF_ASC_NODE":328.4337,"ARG_OF_PERICENTER":69.8883,"MEAN_ANOMALY":290.2469,"EPHEMERIS_TYPE":0,"CLASSIFICATION_TYPE":"U","NORAD_CAT_ID":54147,"ELEMENT_SET_NO":999,"REV_AT_EPOCH":16128,"BSTAR":0.00022417135,"MEAN_MOTION_DOT":1.03e-6,"MEAN_MOTION_DDOT":0},{"OBJECT_NAME":"ONEWEB-0536","OBJECT_ID":"2022-138AM","EPOCH":"2026-02-19T02:45:39.101760","MEAN_MOTION":13.20771091,"ECCENTRICITY":0.00026345,"INCLINATION":87.9192,"RA_OF_ASC_NODE":298.0425,"ARG_OF_PERICENTER":81.8544,"MEAN_ANOMALY":278.2889,"EPHEMERIS_TYPE":0,"CLASSIFICATION_TYPE":"U","NORAD_CAT_ID":54148,"ELEMENT_SET_NO":999,"REV_AT_EPOCH":16371,"BSTAR":0.0002431972,"MEAN_MOTION_DOT":1.12e-6,"MEAN_MOTION_DDOT":0},{"OBJECT_NAME":"ONEWEB-0527","OBJECT_ID":"2022-166A","EPOCH":"2026-02-19T02:01:26.507712","MEAN_MOTION":13.21824751,"ECCENTRICITY":0.00016129,"INCLINATION":87.9174,"RA_OF_ASC_NODE":267.5555,"ARG_OF_PERICENTER":90.6881,"MEAN_ANOMALY":269.4438,"EPHEMERIS_TYPE":0,"CLASSIFICATION_TYPE":"U","NORAD_CAT_ID":54642,"ELEMENT_SET_NO":999,"REV_AT_EPOCH":15593,"BSTAR":0.00017046699,"MEAN_MOTION_DOT":8.3e-7,"MEAN_MOTION_DDOT":0}]
