ONEWEB-0516             
1 54134U 22138X   26049.79719782  .00000091  00000+0  19445-3 0  9999
2 54134  87.9249 328.5515 0001764  84.3073 275.8261 13.19724188161216
ONEWEB-0517             
1 54135U 22138Y   26050.15575363  .00000043  00000+0  74173-4 0  9994
2 54135  87.9254 328.4677 0001698  70.3479 289.7837 13.19724915161268
ONEWEB-0518             
1 54136U 22138Z   26050.17470003  .00000115  00000+0  25398-3 0  9996
2 54136  87.9245 328.4780 0001622  81.0836 279.0481 13.19726080161269
ONEWEB-0519             
1 54137U 22138AA  26050.27579635  .00000040  00000+0  67063-4 0  9992
2 54137  87.9256 328.4356 0001690  69.0598 291.0716 13.19724690161289
ONEWEB-0520             
1 54138U 22138AB  26050.15890720  .00000065  00000+0  13028-3 0  9999
2 54138  87.9259 328.4653 0001543  83.3653 276.7655 13.19724391161258
ONEWEB-0521             
1 54139U 22138AC  26050.26789182  .00000004  00000+0 -22627-4 0  9991
2 54139  87.9259 328.4272 0001812  69.0269 291.1057 13.19724690161214
ONEWEB-0522             
1 54140U 22138AD  26049.79246300  .00000073  00000+0  15007-3 0  9997
2 54140  87.9261 328.5230 0001600  79.8276 280.3037 13.19725136161197
ONEWEB-0523             
1 54141U 22138AE  26050.15291498  .00000002  00000+0 -25974-4 0  9996
2 54141  87.9204 298.0008 0002337  73.0602 287.0787 13.20771270163725
ONEWEB-0524             
1 54142U 22138AF  26050.14190495  .00001299  00000+0  31626-2 0  9998
2 54142  87.9196 298.0043 0002598  94.8226 265.3204 13.20781752163726
ONEWEB-0525             
1 54143U 22138AG  26050.26631236  .00000139  00000+0  31471-3 0  9996
2 54143  87.9251 328.4449 0001554  82.9623 277.1686 13.19724277161277
ONEWEB-0526             
1 54144U 22138AH  26050.14785323 -.00000041  00000+0 -13409-3 0  9996
2 54144  87.9259 328.4616 0001713  81.9728 278.1599 13.19724063161237
ONEWEB-0529             
1 54145U 22138AJ  26050.15100875 -.00000050  00000+0 -15699-3 0  9994
2 54145  87.9250 328.4808 0001583  83.1472 276.9841 13.19723849161256
ONEWEB-0531             
1 54146U 22138AK  26050.12766105  .00000007  00000+0 -14346-4 0  9996
2 54146  87.9196 298.0036 0002573  77.6822 282.4600 13.20771002163723
ONEWEB-0535             
1 54147U 22138AL  26050.26000245  .00000103  00000+0  22417-3 0  9991
2 54147  87.9258 328.4337 0002040  69.8883 290.2469 13.19724732161289
ONEWEB-0536             
1 54148U 22138AM  26050.11503590  .00000112  00000+0  24320-3 0  9992
2 54148  87.9192 298.0425 0002634  81.8544 278.2889 13.20771091163718
ONEWEB-0527             
1 54642U 22166A   26050.08433458  .00000083  00000+0  17047-3 0  9998
2 54642  87.9174 267.5555 0001612  90.6881 269.4438 13.21824751155939
